{"fetched_at":"2026-03-29T16:36:15Z","count":15609,"tles":[{"name":"STARLINK-11204 [DTC]","line1":"1 60931U 24155H   26087.84918481 -.00001266  00000+0 -55996-5 0  9997","line2":"2 60931  53.1603 246.6477 0000873 118.2263 241.8843 15.69703541 91412","category":"Starlink"}]}